[{"OBJECT_NAME":"STARLINK-31995","OBJECT_ID":"2024-107P","EPOCH":"2026-03-09T06:35:29.872320","MEAN_MOTION":15.30196126,"ECCENTRICITY":0.0001148,"INCLINATION":53.1589,"RA_OF_ASC_NODE":67.4043,"ARG_OF_PERICENTER":72.8895,"MEAN_ANOMALY":287.2232,"EPHEMERIS_TYPE":0,"CLASSIFICATION_TYPE":"U","NORAD_CAT_ID":59958,"ELEMENT_SET_NO":999,"REV_AT_EPOCH":9853,"BSTAR":4.0266984e-5,"MEAN_MOTION_DOT":8.34e-6,"MEAN_MOTION_DDOT":0},{"OBJECT_NAME":"CZ-4B DEB","OBJECT_ID":"2006-015E","EPOCH":"2026-03-09T20:34:53.082912","MEAN_MOTION":15.19885806,"ECCENTRICITY":0.00461993,"INCLINATION":98.0565,"RA_OF_ASC_NODE":201.7753,"ARG_OF_PERICENTER":62.4887,"MEAN_ANOMALY":298.1031,"EPHEMERIS_TYPE":0,"CLASSIFICATION_TYPE":"U","NORAD_CAT_ID":29538,"ELEMENT_SET_NO":999,"REV_AT_EPOCH":5389,"BSTAR":0.0022587151,"MEAN_MOTION_DOT":0.00050103,"MEAN_MOTION_DDOT":0}]
